IRIDIUM 106             
1 41917U 17003A   25073.66979363  .00000206  00000+0  66373-4 0  9995
2 41917  86.3913 280.5353 0001849  75.2906 284.8495 14.34218896427347
IRIDIUM 103             
1 41918U 17003B   25073.58734645  .00000192  00000+0  61479-4 0  9995
2 41918  86.3913 280.4708 0002680  81.2599 278.8901 14.34221064427357
IRIDIUM 109             
1 41919U 17003C   25073.59368289  .00000098  00000+0  27980-4 0  9998
2 41919  86.3914 280.5201 0002310  92.0886 268.0574 14.34218192427329
IRIDIUM 102             
1 41920U 17003D   25073.63173800  .00000103  00000+0  29772-4 0  9996
2 41920  86.3911 280.4372 0002026  91.4028 268.7400 14.34218318427416
IRIDIUM 105             
1 41921U 17003E   25073.53270718 -.00000034  00000+0 -19200-4 0  9992
2 41921  86.3929 248.8899 0002038  89.5974 270.5456 14.34216945429259
IRIDIUM 104             
1 41922U 17003F   25073.64442426  .00000015  00000+0 -17998-5 0  9993
2 41922  86.3914 280.4674 0002488  92.1236 268.0244 14.34217355427405
IRIDIUM 114             
1 41923U 17003G   25073.58099810  .00000049  00000+0  10363-4 0  9996
2 41923  86.3914 280.4793 0002330  84.3404 275.8057 14.34217744427370
IRIDIUM 108             
1 41924U 17003H   25073.53951827 -.00000007  00000+0 -97062-5 0  9995
2 41924  86.3924 248.7944 0001754  87.0494 273.0902 14.34217692429222
